[{"OBJECT_NAME":"COSMOS 2251 DEB","OBJECT_ID":"1993-036AFF","EPOCH":"2026-03-06T14:21:30.180672","MEAN_MOTION":14.78272366,"ECCENTRICITY":0.00443574,"INCLINATION":74.0563,"RA_OF_ASC_NODE":141.9217,"ARG_OF_PERICENTER":171.7052,"MEAN_ANOMALY":257.8244,"EPHEMERIS_TYPE":0,"CLASSIFICATION_TYPE":"U","NORAD_CAT_ID":34976,"ELEMENT_SET_NO":999,"REV_AT_EPOCH":89512,"BSTAR":0.0010392992,"MEAN_MOTION_DOT":7.647e-5,"MEAN_MOTION_DDOT":0},{"OBJECT_NAME":"COSMOS 2251 DEB","OBJECT_ID":"1993-036AFJ","EPOCH":"2026-03-06T03:40:14.873952","MEAN_MOTION":14.81063303,"ECCENTRICITY":0.0045782,"INCLINATION":74.037,"RA_OF_ASC_NODE":102.9379,"ARG_OF_PERICENTER":165.2316,"MEAN_ANOMALY":195.0211,"EPHEMERIS_TYPE":0,"CLASSIFICATION_TYPE":"U","NORAD_CAT_ID":34979,"ELEMENT_SET_NO":999,"REV_AT_EPOCH":89454,"BSTAR":0.00086535793,"MEAN_MOTION_DOT":6.808e-5,"MEAN_MOTION_DDOT":0},{"OBJECT_NAME":"COSMOS 2251 DEB","OBJECT_ID":"1993-036AFN","EPOCH":"2026-03-04T11:56:39.951168","MEAN_MOTION":14.42624039,"ECCENTRICITY":0.00144738,"INCLINATION":74.0432,"RA_OF_ASC_NODE":99.7472,"ARG_OF_PERICENTER":153.6316,"MEAN_ANOMALY":206.558,"EPHEMERIS_TYPE":0,"CLASSIFICATION_TYPE":"U","NORAD_CAT_ID":34990,"ELEMENT_SET_NO":999,"REV_AT_EPOCH":88525,"BSTAR":0.00044109541,"MEAN_MOTION_DOT":1.441e-5,"MEAN_MOTION_DDOT":0},{"OBJECT_NAME":"COSMOS 2251 DEB","OBJECT_ID":"1993-036AFV","EPOCH":"2026-02-28T01:05:53.162016","MEAN_MOTION":14.46526222,"ECCENTRICITY":0.00906238,"INCLINATION":73.8806,"RA_OF_ASC_NODE":165.5492,"ARG_OF_PERICENTER":125.6725,"MEAN_ANOMALY":235.2912,"EPHEMERIS_TYPE":0,"CLASSIFICATION_TYPE":"U","NORAD_CAT_ID":34997,"ELEMENT_SET_NO":999,"REV_AT_EPOCH":71864,"BSTAR":0.0013381338,"MEAN_MOTION_DOT":5.047e-5,"MEAN_MOTION_DDOT":0},{"OBJECT_NAME":"COSMOS 2251 DEB","OBJECT_ID":"1993-036AFW","EPOCH":"2026-03-06T06:19:02.334144","MEAN_MOTION":14.49705312,"ECCENTRICITY":0.00196627,"INCLINATION":74.0138,"RA_OF_ASC_NODE":3.0217,"ARG_OF_PERICENTER":134.3143,"MEAN_ANOMALY":18.848,"EPHEMERIS_TYPE":0,"CLASSIFICATION_TYPE":"U","NORAD_CAT_ID":34998,"ELEMENT_SET_NO":999,"REV_AT_EPOCH":88630,"BSTAR":0.00074188792,"MEAN_MOTION_DOT":2.836e-5,"MEAN_MOTION_DDOT":0},{"OBJECT_NAME":"COSMOS 2251 DEB","OBJECT_ID":"1993-036AFZ","EPOCH":"2026-03-05T16:52:09.683904","MEAN_MOTION":14.45654476,"ECCENTRICITY":0.00792685,"INCLINATION":74.0216,"RA_OF_ASC_NODE":316.8834,"ARG_OF_PERICENTER":76.4718,"MEAN_ANOMALY":284.5255,"EPHEMERIS_TYPE":0,"CLASSIFICATION_TYPE":"U","NORAD_CAT_ID":35012,"ELEMENT_SET_NO":999,"REV_AT_EPOCH":88760,"BSTAR":0.00018717628,"MEAN_MOTION_DOT":6.6e-6,"MEAN_MOTION_DDOT":0},{"OBJECT_NAME":"COSMOS 2251 DEB","OBJECT_ID":"1993-036AGB","EPOCH":"2026-02-06T02:06:05.476896","MEAN_MOTION":14.76728606,"ECCENTRICITY":0.00065057,"INCLINATION":73.9978,"RA_OF_ASC_NODE":294.9695,"ARG_OF_PERICENTER":84.9691,"MEAN_ANOMALY":275.2226,"EPHEMERIS_TYPE":0,"CLASSIFICATION_TYPE":"U","NORAD_CAT_ID":35014,"ELEMENT_SET_NO":999,"REV_AT_EPOCH":72153,"BSTAR":0.0022239787,"MEAN_MOTION_DOT":0.00015587,"MEAN_MOTION_DDOT":0},{"OBJECT_NAME":"COSMOS 2251 DEB","OBJECT_ID":"1993-036AGC","EPOCH":"2026-03-02T10:06:07.080192","MEAN_MOTION":14.47405282,"ECCENTRICITY":0.00777457,"INCLINATION":73.9472,"RA_OF_ASC_NODE":84.9741,"ARG_OF_PERICENTER":294.1722,"MEAN_ANOMALY":130.8832,"EPHEMERIS_TYPE":0,"CLASSIFICATION_TYPE":"U","NORAD_CAT_ID":35015,"ELEMENT_SET_NO":999,"REV_AT_EPOCH":66593,"BSTAR":0.00095599129,"MEAN_MOTION_DOT":3.614e-5,"MEAN_MOTION_DDOT":0},{"OBJECT_NAME":"COSMOS 2251 DEB","OBJECT_ID":"1993-036AGD","EPOCH":"2026-03-06T15:40:31.257120","MEAN_MOTION":14.35268703,"ECCENTRICITY":0.01122834,"INCLINATION":73.93,"RA_OF_ASC_NODE":139.5567,"ARG_OF_PERICENTER":36.9774,"MEAN_ANOMALY":115.1645,"EPHEMERIS_TYPE":0,"CLASSIFICATION_TYPE":"U","NORAD_CAT_ID":35016,"ELEMENT_SET_NO":999,"REV_AT_EPOCH":87986,"BSTAR":0.00034994718,"MEAN_MOTION_DOT":1.049e-5,"MEAN_MOTION_DDOT":0},{"OBJECT_NAME":"COSMOS 2251 DEB","OBJECT_ID":"1993-036AGF","EPOCH":"2026-03-06T03:46:01.688736","MEAN_MOTION":13.67406392,"ECCENTRICITY":0.03486147,"INCLINATION":73.9796,"RA_OF_ASC_NODE":332.5591,"ARG_OF_PERICENTER":224.8835,"MEAN_ANOMALY":132.3607,"EPHEMERIS_TYPE":0,"CLASSIFICATION_TYPE":"U","NORAD_CAT_ID":35018,"ELEMENT_SET_NO":999,"REV_AT_EPOCH":84326,"BSTAR":0.00073766686,"MEAN_MOTION_DOT":9.22e-6,"MEAN_MOTION_DDOT":0},{"OBJECT_NAME":"COSMOS 2251 DEB","OBJECT_ID":"1993-036AGH","EPOCH":"2026-03-06T07:36:01.650528","MEAN_MOTION":14.62950478,"ECCENTRICITY":0.00888212,"INCLINATION":74.0466,"RA_OF_ASC_NODE":38.8091,"ARG_OF_PERICENTER":132.7338,"MEAN_ANOMALY":228.135,"EPHEMERIS_TYPE":0,"CLASSIFICATION_TYPE":"U","NORAD_CAT_ID":35020,"ELEMENT_SET_NO":999,"REV_AT_EPOCH":89460,"BSTAR":0.00019397363,"MEAN_MOTION_DOT":1.019e-5,"MEAN_MOTION_DDOT":0},{"OBJECT_NAME":"COSMOS 2251 DEB","OBJECT_ID":"1993-036AGK","EPOCH":"2026-02-21T16:15:51.407712","MEAN_MOTION":14.61180672,"ECCENTRICITY":0.00473587,"INCLINATION":74.0256,"RA_OF_ASC_NODE":186.2538,"ARG_OF_PERICENTER":4.6404,"MEAN_ANOMALY":355.519,"EPHEMERIS_TYPE":0,"CLASSIFICATION_TYPE":"U","NORAD_CAT_ID":35022,"ELEMENT_SET_NO":999,"REV_AT_EPOCH":60179,"BSTAR":0.00036098097,"MEAN_MOTION_DOT":1.775e-5,"MEAN_MOTION_DDOT":0},{"OBJECT_NAME":"COSMOS 2251 DEB","OBJECT_ID":"1993-036AGL","EPOCH":"2026-03-06T07:58:01.573824","MEAN_MOTION":14.98897116,"ECCENTRICITY":0.00269752,"INCLINATION":74.0365,"RA_OF_ASC_NODE":43.4936,"ARG_OF_PERICENTER":105.568,"MEAN_ANOMALY":19.0619,"EPHEMERIS_TYPE":0,"CLASSIFICATION_TYPE":"U","NORAD_CAT_ID":35023,"ELEMENT_SET_NO":999,"REV_AT_EPOCH":89530,"BSTAR":0.0018999012,"MEAN_MOTION_DOT":0.00023176,"MEAN_MOTION_DDOT":0},{"OBJECT_NAME":"COSMOS 2251 DEB","OBJECT_ID":"1993-036AGN","EPOCH":"2026-03-05T22:59:08.097504","MEAN_MOTION":14.73255091,"ECCENTRICITY":0.00831246,"INCLINATION":73.9348,"RA_OF_ASC_NODE":259.8127,"ARG_OF_PERICENTER":154.8061,"MEAN_ANOMALY":205.7203,"EPHEMERIS_TYPE":0,"CLASSIFICATION_TYPE":"U","NORAD_CAT_ID":35025,"ELEMENT_SET_NO":999,"REV_AT_EPOCH":89868,"BSTAR":0.00050122444,"MEAN_MOTION_DOT":3.387e-5,"MEAN_MOTION_DDOT":0},{"OBJECT_NAME":"COSMOS 2251 DEB","OBJECT_ID":"1993-036AGP","EPOCH":"2026-03-02T23:36:18.253440","MEAN_MOTION":14.53683845,"ECCENTRICITY":0.0084814,"INCLINATION":74.0478,"RA_OF_ASC_NODE":167.3147,"ARG_OF_PERICENTER":260.8058,"MEAN_ANOMALY":221.6675,"EPHEMERIS_TYPE":0,"CLASSIFICATION_TYPE":"U","NORAD_CAT_ID":35026,"ELEMENT_SET_NO":999,"REV_AT_EPOCH":89309,"BSTAR":8.6236e-5,"MEAN_MOTION_DOT":3.47e-6,"MEAN_MOTION_DDOT":0},{"OBJECT_NAME":"COSMOS 2251 DEB","OBJECT_ID":"1993-036AGR","EPOCH":"2026-03-05T02:47:56.919264","MEAN_MOTION":14.56657702,"ECCENTRICITY":0.00843571,"INCLINATION":74.0369,"RA_OF_ASC_NODE":114.6475,"ARG_OF_PERICENTER":228.7899,"MEAN_ANOMALY":161.3053,"EPHEMERIS_TYPE":0,"CLASSIFICATION_TYPE":"U","NORAD_CAT_ID":35028,"ELEMENT_SET_NO":999,"REV_AT_EPOCH":89485,"BSTAR":0.00010489854,"MEAN_MOTION_DOT":4.59e-6,"MEAN_MOTION_DDOT":0}]
