COSMOS 2251 DEB         
1 34976U 93036AFF 26065.59826598  .00007647  00000+0  10393-2 0  9992
2 34976  74.0563 141.9217 0044357 171.7052 257.8244 14.78272366895120
COSMOS 2251 DEB         
1 34979U 93036AFJ 26065.15294993  .00006808  00000+0  86536-3 0  9996
2 34979  74.0370 102.9379 0045782 165.2316 195.0211 14.81063303894544
COSMOS 2251 DEB         
1 34990U 93036AFN 26063.49768462  .00001441  00000+0  44110-3 0  9991
2 34990  74.0432  99.7472 0014473 153.6316 206.5580 14.42624039885258
COSMOS 2251 DEB         
1 34997U 93036AFV 26059.04575419  .00005047  00000+0  13381-2 0  9993
2 34997  73.8806 165.5492 0090623 125.6725 235.2912 14.46526222718640
COSMOS 2251 DEB         
1 34998U 93036AFW 26065.26322146  .00002836  00000+0  74189-3 0  9999
2 34998  74.0138   3.0217 0019662 134.3143  18.8480 14.49705312886304
COSMOS 2251 DEB         
1 35012U 93036AFZ 26064.70288986  .00000660  00000+0  18718-3 0  9997
2 35012  74.0216 316.8834 0079268  76.4718 284.5255 14.45654476887607
COSMOS 2251 DEB         
1 35014U 93036AGB 26037.08756339  .00015587  00000+0  22240-2 0  9990
2 35014  73.9978 294.9695 0006505  84.9691 275.2226 14.76728606721536
COSMOS 2251 DEB         
1 35015U 93036AGC 26061.42091528  .00003614  00000+0  95599-3 0  9994
2 35015  73.9472  84.9741 0077745 294.1722 130.8832 14.47405282665939
COSMOS 2251 DEB         
1 35016U 93036AGD 26065.65313955  .00001049  00000+0  34995-3 0  9998
2 35016  73.9300 139.5567 0112283  36.9774 115.1645 14.35268703879868
COSMOS 2251 DEB         
1 35018U 93036AGF 26065.15696399  .00000922  00000+0  73767-3 0  9990
2 35018  73.9796 332.5591 0348614 224.8835 132.3607 13.67406392843262
COSMOS 2251 DEB         
1 35020U 93036AGH 26065.31668577  .00001019  00000+0  19397-3 0  9995
2 35020  74.0466  38.8091 0088821 132.7338 228.1350 14.62950478894606
COSMOS 2251 DEB         
1 35022U 93036AGK 26052.67767833  .00001775  00000+0  36098-3 0  9993
2 35022  74.0256 186.2538 0047358   4.6404 355.5190 14.61180672601793
COSMOS 2251 DEB         
1 35023U 93036AGL 26065.33196266  .00023176  00000+0  18999-2 0  9995
2 35023  74.0365  43.4936 0026975 105.5680  19.0619 14.98897116895308
COSMOS 2251 DEB         
1 35025U 93036AGN 26064.95773261  .00003387  00000+0  50122-3 0  9997
2 35025  73.9348 259.8127 0083124 154.8061 205.7203 14.73255091898683
COSMOS 2251 DEB         
1 35026U 93036AGP 26061.98354460  .00000347  00000+0  86236-4 0  9993
2 35026  74.0478 167.3147 0084814 260.8058 221.6675 14.53683845893096
COSMOS 2251 DEB         
1 35028U 93036AGR 26064.11663101  .00000459  00000+0  10490-3 0  9990
2 35028  74.0369 114.6475 0084357 228.7899 161.3053 14.56657702894855
